#aV2008  6 21  0  0   .00000000      96 DD+AD WGS84 FIT  NGA
## 1484 518400.00000000   900.00000000 54638  .0000000000000
+   31     2  3  4  5  6  7  8  9 10 11 12 13 14 15 16 17 18
+         19 20 21 22 23 24 25 26 27 28 29 30 31 32  0  0  0
+          0  0  0  0  0  0  0  0  0  0  0  0  0  0  0  0  0
+          0  0  0  0  0  0  0  0  0  0  0  0  0  0  0  0  0
+          0  0  0  0  0  0  0  0  0  0  0  0  0  0  0  0  0
++         0  0  0  0  0  0  0  0  0  0  0  0  0  0  0  0  0
++         0  0  0  0  0  0  0  0  0  0  0  0  0  0  0  0  0
++         0  0  0  0  0  0  0  0  0  0  0  0  0  0  0  0  0
++         0  0  0  0  0  0  0  0  0  0  0  0  0  0  0  0  0
++         0  0  0  0  0  0  0  0  0  0  0  0  0  0  0  0  0
%c cc cc ccc ccc cccc cccc cccc cccc ccccc ccccc ccccc ccccc
%c cc cc ccc ccc cccc cccc cccc cccc ccccc ccccc ccccc ccccc
%f  0.0000000  0.000000000  0.00000000000  0.000000000000000
%f  0.0000000  0.000000000  0.00000000000  0.000000000000000
%i    0    0    0    0      0      0      0      0         0
%i    0    0    0    0      0      0      0      0         0
/*      NGA, ST. LOUIS,MO.                                  
/*   EPHEMERIS COMPUTED FROM  3 DAYS OF DATA                
/* CCCCCCCCCCCCCCCCCCCCCCCCCCCCCCCCCCCCCCCCCCCCCCCCCCCCCCCCC
/* CCCCCCCCCCCCCCCCCCCCCCCCCCCCCCCCCCCCCCCCCCCCCCCCCCCCCCCCC
*  2008  6 21  0 45   .00000000                                                 
P  2 -20905.030824   8666.798712 -13761.660009    205.699662                    
V  2   9387.932943 -14925.670534 -24281.051588      -.009265                    
P  3  15520.293135  -3952.715961  20952.912841    244.891529                    
V  3  10992.561847  25018.580031  -3028.036850       .050538                    
P  4 -17898.823199  -1680.660778 -19759.250608    -95.923291                    
V  4  15884.333856 -19125.225091 -12465.707229      -.092412                    
P  5  -3800.383965  15343.821948 -21610.103496   -385.671731                    
V  5 -26661.213005  -3386.304704   2456.390137       .109284                    
P  6  16888.816797   1485.415875  20636.716848    151.000896                    
V  6   8148.804726  24579.144488  -8542.657523       .056879                    
P  7   1923.600444 -20086.393312  17203.460253    -17.226223                    
V  7  15930.005892 -15165.304613 -19527.287280       .069537                    
P  8  -9193.047377 -11497.090226  22000.837828   -158.362431                    
V  8  20085.200283 -19654.783153  -2330.638965      -.016985                    
P  9 -13636.143543  22181.061195  -5433.799596      1.719910                    
V  9  -5787.408181   3136.722004  31110.320235       .018087                    
P 10 -24391.135204   1821.784324  10610.994811     -2.351615                    
V 10 -12701.750490  -5230.549343 -27618.163931      -.002341                    
P 11   9287.726801 -24128.667831  -5430.848105     24.413881                    
V 11   7875.326616  -3293.519437  29258.391447      -.005056                    
P 12  -9417.067973  12953.512485 -21083.321333   -358.271819                    
V 12 -26248.336815  -6302.690199   7914.044898       .004846                    
P 13  -5901.380975 -25848.192702  -1842.085612    260.654376                    
V 13   2211.725242   1651.667773 -32377.457363       .015947                    
P 14  14512.152943  17610.930994 -13580.221767   -253.138449                    
V 14   3488.218834  17029.285707  25523.968584       .043372                    
P 15 -10013.612724  14311.515567  20025.665972   -129.964616                    
V 15  -9279.946122 -23670.782474  12296.521111      -.061148                    
P 16  25942.792454   1671.286610   6020.678083    120.382034                    
V 16   6787.233236   3989.773080 -30513.013912      -.015749                    
P 17 -15316.285131 -17026.050055 -13548.800948     38.619876                    
V 17  -3113.940466 -17067.734945  24728.347891      -.000340                    
P 18  11050.548994  16226.334916  18237.276878   -165.187737                    
V 18 -22391.687987  -3985.661662  16925.234377       .041729                    
P 19  10586.696781 -14492.456830  19603.416618     32.328818                    
V 19   7384.260569  23691.213900  13773.999037       .006684                    
P 20   7518.608135 -14153.470101 -21290.126045    111.675418                    
V 20  26235.527141   5600.337160   5611.074045      -.008412                    
P 21   3957.250479  17168.675590  19895.244505     60.605206                    
V 21 -18386.524947  17175.076816 -11890.497226      -.011979                    
P 22  22307.930690  11904.765258   8379.634105    211.493545                    
V 22 -10846.766491    312.315282  28910.560131       .001818                    
P 23   1962.615251 -22942.856592 -13082.664778    360.414061                    
V 23   7165.690854  15102.495105 -25789.463333       .019975                    
P 24 -10249.685654  21900.779072  11465.307262    103.431213                    
V 24 -11697.138176   8430.673268 -26680.748294       .030449                    
P 25   6642.381146 -23020.126704  12014.047592   -174.893458                    
V 25  10307.131293 -10573.174307 -26584.639308      -.041648                    
P 26 -11881.300645   9184.561516  21335.390466    277.892713                    
V 26  -8245.020752 -27061.522974   7419.204537       .072691                    
P 27  -1570.325806 -19050.939120  19058.553240    197.093400                    
V 27  15132.060883 -17139.502978 -16609.431346       .027073                    
P 28 -21400.332978 -12500.774940  10383.285821    -20.283715                    
V 28  12639.266942    906.855105  27870.861978      -.004492                    
P 29   4302.276046  25748.569758  -4860.244082    -42.414812                    
V 29  -4515.623676  -5227.763764 -30897.194705       .000798                    
P 30   5117.862799  16043.375218 -20904.235713     82.156733                    
V 30 -25562.263513  -3475.183435  -8975.972702       .017808                    
P 31  18062.084673   -327.118500 -19307.299065    -24.102473                    
V 31 -15655.272268  19389.418369 -14712.139804      -.013070                    
P 32  17941.303334  -7300.721289 -17681.606165    299.838139                    
V 32  21871.612845   8311.851939  18496.957349       .039652                    
EOF
